IRIDIUM 171             
1 43929U 19002H   24041.91554238  .00000063  00000+0  15568-4 0  9994
2 43929  86.4022 352.0566 0002235  90.5560 269.5892 14.34217529266086
IRIDIUM 170             
1 43930U 19002J   24041.88846849  .00002330  00000+0  36555-3 0  9991
2 43930  86.6140 351.9082 0002307  88.2630 271.8851 14.72250694273120
IRIDIUM 167             
1 43931U 19002K   24041.90919755  .00000585  00000+0  20193-3 0  9993
2 43931  86.4011 351.8630 0002254  88.6054 271.5400 14.34219220266081
IRIDIUM 181             
1 56726U 23068S   24042.04992454  .00000427  00000+0  12032-3 0  9997
2 56726  86.8611  39.3403 0002338 105.3141 254.8319 14.43577783 38799
IRIDIUM 177             
1 56727U 23068T   24041.93136497  .00003662  00000+0  47832-3 0  9992
2 56727  86.1991  15.7589 0002459  91.6640 268.4862 14.80237000 39557
IRIDIUM 174             
1 56728U 23068U   24041.99352413  .00003735  00000+0  48796-3 0  9998
2 56728  86.1999  15.8228 0002375  91.6811 268.4682 14.80237992 39565
IRIDIUM 178             
1 56729U 23068V   24041.92075356  .00003653  00000+0  47715-3 0  9999
2 56729  86.5778  27.2827 0002705  92.6935 267.4597 14.80241169 39556
IRIDIUM 179             
1 56730U 23068W   24041.98301281  .00003555  00000+0  46430-3 0  9990
2 56730  86.6786  29.7864 0002497  95.0419 265.1087 14.80240066 39563
